NORAD_CAT_ID,OBJECT_NAME,OBJECT_TYPE,EPOCH,MEAN_MOTION,ECCENTRICITY,INCLINATION,RA_OF_ASC_NODE,ARG_OF_PERICENTER,MEAN_ANOMALY,BSTAR,MEAN_MOTION_DOT,MEAN_MOTION_DDOT,TLE_LINE0,TLE_LINE1,TLE_LINE2,SEMIMAJOR_AXIS,PERIOD,APOGEE,PERIGEE,DECAYED
49737.0,STARLINK-3225,PAYLOAD,2023-03-05 16:31:53,15.08852049,0.0001006,53.2155,47.2145,56.4696,303.6392,0.001677,0.00026511,0.0,0 STARLINK-3225,1 49737U 21115P   23064.68881715  .00026511  00000-0  16770-2 0  9997,2 49737  53.2155  47.2145 0001006  56.4696 303.6392 15.08852049 69473,6917.844,95.437,540.404,539.013,0.0
49737.0,STARLINK-3225,PAYLOAD,2023-03-06 05:14:58,15.08854309,0.0001276,53.2167,44.8324,88.1466,271.9672,0.00079956,0.00012465,0.0,0 STARLINK-3225,1 49737U 21115P   23065.21873497  .00012465  00000-0  79956-3 0  9994,2 49737  53.2167  44.8324 0001276  88.1466 271.9672 15.08854309 70666,6917.837,95.437,540.584,538.819,0.0
49737.0,STARLINK-3225,PAYLOAD,2023-03-06 10:01:07,15.08876529,0.000133,53.2165,43.9399,113.5593,246.5539,0.0012979,0.00020449,0.0,0 STARLINK-3225,1 49737U 21115P   23065.41744808  .00020449  00000-0  12979-2 0  9991,2 49737  53.2165  43.9399 0001330 113.5593 246.5539 15.08876529 70692,6917.769,95.435,540.554,538.714,0.0
49737.0,STARLINK-3225,PAYLOAD,2023-03-07 05:05:46,15.08844332,6.16e-05,53.2166,40.3738,70.7879,289.318,0.00068289,0.00010598,0.0,0 STARLINK-3225,1 49737U 21115P   23066.21233912  .00010598  00000-0  68289-3 0  9999,2 49737  53.2166  40.3738 0000616  70.7879 289.3180 15.08844332 70816,6917.867,95.437,540.158,539.306,0.0
49737.0,STARLINK-3225,PAYLOAD,2023-03-07 20:59:37,15.08840143,0.0001366,53.2173,37.3983,81.1123,279.0023,0.0011988,0.00018842,0.0,0 STARLINK-3225,1 49737U 21115P   23066.87474305  .00018842  00000-0  11988-2 0  9997,2 49737  53.2173  37.3983 0001366  81.1123 279.0023 15.08840143 70912,6917.88,95.438,540.69,538.8,0.0
49737.0,STARLINK-3225,PAYLOAD,2023-03-08 01:45:46,15.0885788,6.91e-05,53.217,36.508,119.421,240.6851,0.0018368,0.0002908,0.0,0 STARLINK-3225,1 49737U 21115P   23067.07345979  .00029080  00000-0  18368-2 0  9999,2 49737  53.2170  36.5080 0000691 119.4210 240.6851 15.08857880 70942,6917.826,95.436,540.169,539.213,0.0
49737.0,STARLINK-3225,PAYLOAD,2023-03-08 09:42:41,15.08892242,5.88e-05,53.2179,35.0212,93.0872,267.0188,0.0027798,0.00044294,0.0,0 STARLINK-3225,1 49737U 21115P   23067.40465105  .00044294  00000-0  27798-2 0  9991,2 49737  53.2179  35.0212 0000588  93.0872 267.0188 15.08892242 70990,6917.721,95.434,539.992,539.179,0.0
49737.0,STARLINK-3225,PAYLOAD,2023-03-08 22:25:47,15.08851655,6.89e-05,53.2176,32.6446,100.8476,259.2593,0.0014305,0.00022559,0.0,0 STARLINK-3225,1 49737U 21115P   23067.93457800  .00022559  00000-0  14305-2 0  9992,2 49737  53.2176  32.6446 0000689 100.8476 259.2593 15.08851655 71074,6917.845,95.437,540.186,539.233,0.0
49737.0,STARLINK-3225,PAYLOAD,2023-03-09 06:22:43,15.0885813,6.01e-05,53.218,31.1567,83.7269,276.3792,0.002479,0.00039406,0.0,0 STARLINK-3225,1 49737U 21115P   23068.26577802  .00039406  00000-0  24790-2 0  9992,2 49737  53.2180  31.1567 0000601  83.7269 276.3792 15.08858130 70019,6917.825,95.436,540.106,539.274,0.0
49737.0,STARLINK-3225,PAYLOAD,2023-03-10 04:38:06,15.08885068,0.0001237,53.2179,26.9915,65.0834,295.0287,0.0025721,0.00040936,0.0,0 STARLINK-3225,1 49737U 21115P   23069.19313485  .00040936  00000-0  25721-2 0  9995,2 49737  53.2179  26.9915 0001237  65.0834 295.0287 15.08885068 71268,6917.743,95.435,540.463,538.752,0.0
49737.0,STARLINK-3225,PAYLOAD,2023-03-10 14:10:26,15.08855561,0.0002948,53.2174,25.2087,64.2303,295.8994,0.0013107,0.00020643,0.0,0 STARLINK-3225,1 49737U 21115P   23069.59057979  .00020643  00000-0  13107-2 0  9990,2 49737  53.2174  25.2087 0002948  64.2303 295.8994 15.08855561 71322,6917.833,95.437,541.737,537.658,0.0
49737.0,STARLINK-3225,PAYLOAD,2023-03-11 06:04:18,15.08829387,0.0001123,53.2168,22.2353,48.9899,311.119,0.0030865,0.00049162,0.0,0 STARLINK-3225,1 49737U 21115P   23070.25298826  .00049162  00000-0  30865-2 0  9990,2 49737  53.2168  22.2353 0001123  48.9899 311.1190 15.08829387 71429,6917.913,95.438,540.555,539.001,0.0
49737.0,STARLINK-3225,PAYLOAD,2023-03-11 20:22:46,15.08846781,0.0001221,53.2174,19.5595,55.6993,304.4114,0.0014469,0.00022819,0.0,0 STARLINK-3225,1 49737U 21115P   23070.84915083  .00022819  00000-0  14469-2 0  9998,2 49737  53.2174  19.5595 0001221  55.6993 304.4114 15.08846781 71510,6917.86,95.437,540.569,538.88,0.0
49737.0,STARLINK-3225,PAYLOAD,2023-03-12 02:44:18,15.08873374,0.0001269,53.2167,18.3703,64.0334,296.0789,0.0020906,0.00033171,0.0,0 STARLINK-3225,1 49737U 21115P   23071.11410557  .00033171  00000-0  20906-2 0  9991,2 49737  53.2167  18.3703 0001269  64.0334 296.0789 15.08873374 71551,6917.778,95.435,540.521,538.766,0.0
49737.0,STARLINK-3225,PAYLOAD,2023-03-12 20:13:32,15.08880133,9.08e-05,53.2176,15.0996,88.3453,271.7643,0.0023562,0.00037452,0.0,0 STARLINK-3225,1 49737U 21115P   23071.84274040  .00037452  00000-0  23562-2 0  9993,2 49737  53.2176  15.0996 0000908  88.3453 271.7643 15.08880133 71661,6917.758,95.435,540.251,538.995,0.0
49737.0,STARLINK-3225,PAYLOAD,2023-03-12 23:24:18,15.0886109,7.34e-05,53.2177,14.5046,47.5147,312.5907,0.0017568,0.00027798,0.0,0 STARLINK-3225,1 49737U 21115P   23071.97521911  .00027798  00000-0  17568-2 0  9990,2 49737  53.2177  14.5046 0000734  47.5147 312.5907 15.08861090 71686,6917.816,95.436,540.189,539.173,0.0
49737.0,STARLINK-3225,PAYLOAD,2023-03-13 00:59:42,15.0885788,9.62e-05,53.2172,14.2075,77.0901,283.0198,0.0014875,0.00023476,0.0,0 STARLINK-3225,1 49737U 21115P   23072.04145857  .00023476  00000-0  14875-2 0  9997,2 49737  53.2172  14.2075 0000962  77.0901 283.0198 15.08857880 70583,6917.826,95.436,540.356,539.025,0.0
49737.0,STARLINK-3225,PAYLOAD,2023-03-14 05:36:39,15.08838512,0.0001211,53.218,8.8549,124.527,235.5837,0.00071618,0.00011128,0.0,0 STARLINK-3225,1 49737U 21115P   23073.23378879  .00011128  00000-0  71618-3 0  9991,2 49737  53.2180   8.8549 0001211 124.5270 235.5837 15.08838512 71878,6917.885,95.438,540.588,538.912,0.0
49737.0,STARLINK-3225,PAYLOAD,2023-03-15 02:16:39,15.08865805,0.0001527,53.2179,4.9863,117.8057,242.3091,0.0013748,0.00021675,0.0,0 STARLINK-3225,1 49737U 21115P   23074.09490640  .00021675  00000-0  13748-2 0  9994,2 49737  53.2179   4.9863 0001527 117.8057 242.3091 15.08865805 70894,6917.802,95.436,540.723,538.61,0.0
49737.0,STARLINK-3225,PAYLOAD,2023-03-15 19:45:53,15.08872695,0.0001525,53.2181,1.7154,107.0201,253.0959,0.00068835,0.00010694,0.0,0 STARLINK-3225,1 49737U 21115P   23074.82353440  .00010694  00000-0  68835-3 0  9998,2 49737  53.2181   1.7154 0001525 107.0201 253.0959 15.08872695 72119,6917.78,95.435,540.7,538.59,0.0
49737.0,STARLINK-3225,PAYLOAD,2023-03-16 02:07:26,15.0878312,0.0001438,53.2174,0.5318,104.3273,255.7879,0.0008667,0.00013511,0.0,0 STARLINK-3225,1 49737U 21115P   23075.08850514  .00013511  00000-0  86670-3 0  9999,2 49737  53.2174   0.5318 0001438 104.3273 255.7879 15.08783120 72150,6918.054,95.441,540.914,538.924,0.0
49737.0,STARLINK-3225,PAYLOAD,2023-03-16 05:18:13,15.08796044,0.0001565,53.2175,359.9346,89.5582,270.5589,0.0023696,0.0003758,0.0,0 STARLINK-3225,1 49737U 21115P   23075.22098916  .00037580  00000-0  23696-2 0  9995,2 49737  53.2175 359.9346 0001565  89.5582 270.5589 15.08796044 72175,6918.015,95.44,540.962,538.797,0.0
49737.0,STARLINK-3225,PAYLOAD,2023-03-16 22:47:28,15.0883344,0.0001555,53.2175,356.6635,94.6649,265.4521,0.0015371,0.00024255,0.0,0 STARLINK-3225,1 49737U 21115P   23075.94964028  .00024255  00000-0  15371-2 0  9996,2 49737  53.2175 356.6635 0001555  94.6649 265.4521 15.08833440 72283,6917.9,95.438,540.841,538.69,0.0
49737.0,STARLINK-3225,PAYLOAD,2023-03-17 03:33:38,15.08846029,0.0001512,53.217,355.7708,91.6739,268.4427,0.0016427,0.00025957,0.0,0 STARLINK-3225,1 49737U 21115P   23076.14835966  .00025957  00000-0  16427-2 0  9990,2 49737  53.2170 355.7708 0001512  91.6739 268.4427 15.08846029 71205,6917.862,95.437,540.773,538.681,0.0
49737.0,STARLINK-3225,PAYLOAD,2023-03-18 03:24:24,15.08868017,0.0001535,53.2173,351.3105,90.481,269.6358,0.0011062,0.00017374,0.0,0 STARLINK-3225,1 49737U 21115P   23077.14195352  .00017374  00000-0  11062-2 0  9993,2 49737  53.2173 351.3105 0001535  90.4810 269.6358 15.08868017 72469,6917.795,95.436,540.722,538.598,0.0
49737.0,STARLINK-3225,PAYLOAD,2023-03-18 11:21:21,15.08824439,0.0001824,53.2171,349.8245,80.1956,279.9242,-1.5009e-05,-5.27e-06,0.0,0 STARLINK-3225,1 49737U 21115P   23077.47316465 -.00000527  00000-0 -15009-4 0  9990,2 49737  53.2171 349.8245 0001824  80.1956 279.9242 15.08824439 72514,6917.928,95.439,541.055,538.531,0.0
49737.0,STARLINK-3225,PAYLOAD,2023-03-18 22:29:03,15.08814777,0.0001247,53.2177,347.741,81.3783,278.7351,-0.00025863,-4.399e-05,0.0,0 STARLINK-3225,1 49737U 21115P   23077.93685088 -.00004399  00000-0 -25863-3 0  9990,2 49737  53.2177 347.7410 0001247  81.3783 278.7351 15.08814777 71477,6917.957,95.439,540.685,538.96,0.0
49737.0,STARLINK-3225,PAYLOAD,2023-03-19 00:04:27,15.0881072,6.55e-05,53.2172,347.443,84.2036,275.9031,-0.00032564,-5.462e-05,0.0,0 STARLINK-3225,1 49737U 21115P   23078.00309113 -.00005462  00000-0 -32564-3 0  9999,2 49737  53.2172 347.4430 0000655  84.2036 275.9031 15.08810720 72598,6917.97,95.439,540.288,539.382,0.0
49737.0,STARLINK-3225,PAYLOAD,2023-03-19 11:12:09,15.08846556,0.0001174,53.217,345.3631,85.6099,274.5027,0.0014914,0.00023532,0.0,0 STARLINK-3225,1 49737U 21115P   23078.46677237  .00023532  00000-0  14914-2 0  9998,2 49737  53.2170 345.3631 0001174  85.6099 274.5027 15.08846556 72661,6917.86,95.437,540.538,538.913,0.0
49737.0,STARLINK-3225,PAYLOAD,2023-03-19 17:33:41,15.08865945,0.0001134,53.2168,344.1742,85.0211,275.0911,0.0019632,0.00031117,0.0,0 STARLINK-3225,1 49737U 21115P   23078.73172990  .00031117  00000-0  19632-2 0  9994,2 49737  53.2168 344.1742 0001134  85.0211 275.0911 15.08865945 71596,6917.801,95.436,540.451,538.882,0.0
